start=new Date('2021-11-06T00:00:00.000Z').valueOf();
sats=[{"CLASSIFICATION_TYPE":"U","BSTAR":"0.00002287400000","MEAN_ANOMALY":"356.3850","FILE":"3204412","RCS_SIZE":"LARGE","SITE":"AFETR","COUNTRY_CODE":"US","OBJECT_ID":"2020-038AK","TIME_SYSTEM":"UTC","PERIAPSIS":"367.525","GP_ID":"189044160","LAUNCH_DATE":"2020-06-13","CENTER_NAME":"EARTH","OBJECT_NAME":"STARLINK-1501","DECAY_DATE":null,"SEMIMAJOR_AXIS":"6748.701","APOAPSIS":"373.608","TLE_LINE1":"1 45763U 20038AK  21309.77231992  .00001814  00000-0  22874-4 0  9994","NORAD_CAT_ID":"45763","REV_AT_EPOCH":"7858","MEAN_ELEMENT_THEORY":"SGP4","INCLINATION":"53.0545","PERIOD":"91.958","ARG_OF_PERICENTER":"3.7197","MEAN_MOTION":"15.65930410","RA_OF_ASC_NODE":"74.8506","OBJECT_TYPE":"PAYLOAD","TLE_LINE2":"2 45763  53.0545  74.8506 0004507   3.7197 356.3850 15.65930410 78584","EPOCH":"2021-11-05T18:32:08.441088","ECCENTRICITY":"0.00045070","REF_FRAME":"TEME","MEAN_MOTION_DDOT":"0.0000000000000","MEAN_MOTION_DOT":"0.00001814","EPHEMERIS_TYPE":"0","ELEMENT_SET_NO":"999"},{"RCS_SIZE":"LARGE","FILE":"3204412","MEAN_ANOMALY":"279.6577","BSTAR":"0.00014294000000","CLASSIFICATION_TYPE":"U","PERIAPSIS":"545.902","OBJECT_ID":"2020-038AL","TIME_SYSTEM":"UTC","SITE":"AFETR","COUNTRY_CODE":"US","OBJECT_NAME":"STARLINK-1502","CENTER_NAME":"EARTH","LAUNCH_DATE":"2020-06-13","GP_ID":"189044920","TLE_LINE1":"1 45764U 20038AL  21309.85886693  .00001848  00000-0  14294-3 0  9991","APOAPSIS":"548.561","SEMIMAJOR_AXIS":"6925.366","DECAY_DATE":null,"INCLINATION":"53.0528","MEAN_ELEMENT_THEORY":"SGP4","REV_AT_EPOCH":"7761","NORAD_CAT_ID":"45764","MEAN_MOTION":"15.06394208","RA_OF_ASC_NODE":"131.1959","PERIOD":"95.593","ARG_OF_PERICENTER":"80.4629","ECCENTRICITY":"0.00019200","EPOCH":"2021-11-05T20:36:46.102752","TLE_LINE2":"2 45764  53.0528 131.1959 0001920  80.4629 279.6577 15.06394208 77613","OBJECT_TYPE":"PAYLOAD","ELEMENT_SET_NO":"999","MEAN_MOTION_DOT":"0.00001848","EPHEMERIS_TYPE":"0","REF_FRAME":"TEME","MEAN_MOTION_DDOT":"0.0000000000000"},{"ECCENTRICITY":"0.00018500","EPOCH":"2021-11-05T21:56:23.946720","OBJECT_TYPE":"PAYLOAD","TLE_LINE2":"2 45766  53.0553 130.9634 0001850  82.1556 277.9643 15.06382717 77606","ELEMENT_SET_NO":"999","EPHEMERIS_TYPE":"0","MEAN_MOTION_DOT":"-0.00000681","MEAN_MOTION_DDOT":"0.0000000000000","REF_FRAME":"TEME","INCLINATION":"53.0553","MEAN_ELEMENT_THEORY":"SGP4","REV_AT_EPOCH":"7760","NORAD_CAT_ID":"45766","MEAN_MOTION":"15.06382717","RA_OF_ASC_NODE":"130.9634","ARG_OF_PERICENTER":"82.1556","PERIOD":"95.593","OBJECT_NAME":"STARLINK-1509","CENTER_NAME":"EARTH","LAUNCH_DATE":"2020-06-13","GP_ID":"189045147","TLE_LINE1":"1 45766U 20038AN  21309.91416605 -.00000681  00000-0 -26844-4 0  9993","APOAPSIS":"548.548","SEMIMAJOR_AXIS":"6925.402","DECAY_DATE":null,"RCS_SIZE":"LARGE","FILE":"3204412","MEAN_ANOMALY":"277.9643","BSTAR":"-0.00002684400000","CLASSIFICATION_TYPE":"U","PERIAPSIS":"545.985","TIME_SYSTEM":"UTC","OBJECT_ID":"2020-038AN","SITE":"AFETR","COUNTRY_CODE":"US"},{"GP_ID":"189043419","LAUNCH_DATE":"2020-06-13","CENTER_NAME":"EARTH","OBJECT_NAME":"STARLINK-1511","DECAY_DATE":null,"SEMIMAJOR_AXIS":"6925.351","TLE_LINE1":"1 45767U 20038AP  21309.90678917  .00003694  00000-0  26677-3 0  9997","APOAPSIS":"548.373","CLASSIFICATION_TYPE":"U","BSTAR":"0.00026677000000","MEAN_ANOMALY":"277.1261","FILE":"3204412","RCS_SIZE":"LARGE","SITE":"AFETR","COUNTRY_CODE":"US","OBJECT_ID":"2020-038AP","TIME_SYSTEM":"UTC","PERIAPSIS":"546.059","TLE_LINE2":"2 45767  53.0526 130.9900 0001671  82.9918 277.1261 15.06399234 77604","OBJECT_TYPE":"PAYLOAD","EPOCH":"2021-11-05T21:45:46.584288","ECCENTRICITY":"0.00016710","REF_FRAME":"TEME","MEAN_MOTION_DDOT":"0.0000000000000","MEAN_MOTION_DOT":"0.00003694","EPHEMERIS_TYPE":"0","ELEMENT_SET_NO":"999","NORAD_CAT_ID":"45767","REV_AT_EPOCH":"7760","MEAN_ELEMENT_THEORY":"SGP4","INCLINATION":"53.0526","ARG_OF_PERICENTER":"82.9918","PERIOD":"95.592","RA_OF_ASC_NODE":"130.9900","MEAN_MOTION":"15.06399234"},{"ELEMENT_SET_NO":"999","MEAN_MOTION_DOT":"-0.00000480","EPHEMERIS_TYPE":"0","MEAN_MOTION_DDOT":"0.0000000000000","REF_FRAME":"TEME","ECCENTRICITY":"0.00014940","EPOCH":"2021-11-05T21:19:14.075040","OBJECT_TYPE":"PAYLOAD","TLE_LINE2":"2 45768  53.0546 131.0769 0001494  82.6935 277.4224 15.06388858 77614","RA_OF_ASC_NODE":"131.0769","MEAN_MOTION":"15.06388858","PERIOD":"95.593","ARG_OF_PERICENTER":"82.6935","INCLINATION":"53.0546","MEAN_ELEMENT_THEORY":"SGP4","REV_AT_EPOCH":"7761","NORAD_CAT_ID":"45768","APOAPSIS":"548.282","TLE_LINE1":"1 45768U 20038AQ  21309.88835735 -.00000480  00000-0 -13320-4 0  9992","SEMIMAJOR_AXIS":"6925.383","DECAY_DATE":null,"OBJECT_NAME":"STARLINK-1521","CENTER_NAME":"EARTH","LAUNCH_DATE":"2020-06-13","GP_ID":"189043661","PERIAPSIS":"546.213","TIME_SYSTEM":"UTC","OBJECT_ID":"2020-038AQ","SITE":"AFETR","COUNTRY_CODE":"US","FILE":"3204412","RCS_SIZE":"LARGE","MEAN_ANOMALY":"277.4224","BSTAR":"-0.00001332000000","CLASSIFICATION_TYPE":"U"},{"ARG_OF_PERICENTER":"77.4292","PERIOD":"95.592","MEAN_MOTION":"15.06406577","RA_OF_ASC_NODE":"151.2649","NORAD_CAT_ID":"45769","REV_AT_EPOCH":"7732","INCLINATION":"53.0528","MEAN_ELEMENT_THEORY":"SGP4","MEAN_MOTION_DDOT":"0.0000000000000","REF_FRAME":"TEME","MEAN_MOTION_DOT":"0.00002105","EPHEMERIS_TYPE":"0","ELEMENT_SET_NO":"999","TLE_LINE2":"2 45769  53.0528 151.2649 0001877  77.4292 282.6907 15.06406577 77322","OBJECT_TYPE":"PAYLOAD","ECCENTRICITY":"0.00018770","EPOCH":"2021-11-05T20:18:10.656288","SITE":"AFETR","COUNTRY_CODE":"US","TIME_SYSTEM":"UTC","OBJECT_ID":"2020-038AR","PERIAPSIS":"545.894","CLASSIFICATION_TYPE":"U","BSTAR":"0.00016012000000","FILE":"3204412","RCS_SIZE":"LARGE","MEAN_ANOMALY":"282.6907","DECAY_DATE":null,"APOAPSIS":"548.493","TLE_LINE1":"1 45769U 20038AR  21309.84595667  .00002105  00000-0  16012-3 0  9990","SEMIMAJOR_AXIS":"6925.328","GP_ID":"189044421","LAUNCH_DATE":"2020-06-13","CENTER_NAME":"EARTH","OBJECT_NAME":"STARLINK-1459"},{"APOAPSIS":"548.330","TLE_LINE1":"1 45770U 20038AS  21309.84870451  .00001986  00000-0  15221-3 0  9996","SEMIMAJOR_AXIS":"6925.340","DECAY_DATE":null,"CENTER_NAME":"EARTH","OBJECT_NAME":"STARLINK-1462","GP_ID":"189044648","LAUNCH_DATE":"2020-06-13","TIME_SYSTEM":"UTC","OBJECT_ID":"2020-038AS","PERIAPSIS":"546.080","COUNTRY_CODE":"US","SITE":"AFETR","RCS_SIZE":"LARGE","FILE":"3204412","MEAN_ANOMALY":"279.7295","CLASSIFICATION_TYPE":"U","BSTAR":"0.00015221000000","ELEMENT_SET_NO":"999","MEAN_MOTION_DDOT":"0.0000000000000","REF_FRAME":"TEME","EPHEMERIS_TYPE":"0","MEAN_MOTION_DOT":"0.00001986","OBJECT_TYPE":"PAYLOAD","TLE_LINE2":"2 45770  53.0549 111.2557 0001625  80.3878 279.7295 15.06402813 77871","ECCENTRICITY":"0.00016250","EPOCH":"2021-11-05T20:22:08.069664","PERIOD":"95.592","ARG_OF_PERICENTER":"80.3878","RA_OF_ASC_NODE":"111.2557","MEAN_MOTION":"15.06402813","INCLINATION":"53.0549","MEAN_ELEMENT_THEORY":"SGP4","NORAD_CAT_ID":"45770","REV_AT_EPOCH":"7787"},{"TLE_LINE2":"2 45771  53.0534 111.2801 0001815  80.0600 280.0594 15.06394909 77872","OBJECT_TYPE":"PAYLOAD","ECCENTRICITY":"0.00018150","EPOCH":"2021-11-05T20:12:53.180352","ELEMENT_SET_NO":"999","MEAN_MOTION_DDOT":"0.0000000000000","REF_FRAME":"TEME","MEAN_MOTION_DOT":"0.00003798","EPHEMERIS_TYPE":"0","INCLINATION":"53.0534","MEAN_ELEMENT_THEORY":"SGP4","NORAD_CAT_ID":"45771","REV_AT_EPOCH":"7787","PERIOD":"95.592","ARG_OF_PERICENTER":"80.0600","RA_OF_ASC_NODE":"111.2801","MEAN_MOTION":"15.06394909","CENTER_NAME":"EARTH","OBJECT_NAME":"STARLINK-1463","GP_ID":"189043919","LAUNCH_DATE":"2020-06-13","TLE_LINE1":"1 45771U 20038AT  21309.84228218  .00003798  00000-0  27380-3 0  9997","APOAPSIS":"548.486","SEMIMAJOR_AXIS":"6925.364","DECAY_DATE":null,"RCS_SIZE":"LARGE","FILE":"3204412","MEAN_ANOMALY":"280.0594","CLASSIFICATION_TYPE":"U","BSTAR":"0.00027380000000","TIME_SYSTEM":"UTC","OBJECT_ID":"2020-038AT","PERIAPSIS":"545.972","SITE":"AFETR","COUNTRY_CODE":"US"},{"LAUNCH_DATE":"2020-06-13","GP_ID":"189044161","OBJECT_NAME":"STARLINK-1470","CENTER_NAME":"EARTH","DECAY_DATE":null,"APOAPSIS":"548.373","TLE_LINE1":"1 45772U 20038AU  21309.83121465  .00002904  00000-0  21372-3 0  9996","SEMIMAJOR_AXIS":"6925.326","BSTAR":"0.00021372000000","CLASSIFICATION_TYPE":"U","FILE":"3204412","RCS_SIZE":"LARGE","MEAN_ANOMALY":"283.3423","SITE":"AFETR","COUNTRY_CODE":"US","PERIAPSIS":"546.009","OBJECT_ID":"2020-038AU","TIME_SYSTEM":"UTC","ECCENTRICITY":"0.00017070","EPOCH":"2021-11-05T19:56:56.945760","OBJECT_TYPE":"PAYLOAD","TLE_LINE2":"2 45772  53.0541 111.3350 0001707  76.7756 283.3423 15.06407248 77884","EPHEMERIS_TYPE":"0","MEAN_MOTION_DOT":"0.00002904","MEAN_MOTION_DDOT":"0.0000000000000","REF_FRAME":"TEME","ELEMENT_SET_NO":"999","REV_AT_EPOCH":"7788","NORAD_CAT_ID":"45772","INCLINATION":"53.0541","MEAN_ELEMENT_THEORY":"SGP4","RA_OF_ASC_NODE":"111.3350","MEAN_MOTION":"15.06407248","PERIOD":"95.592","ARG_OF_PERICENTER":"76.7756"},{"NORAD_CAT_ID":"45773","REV_AT_EPOCH":"7789","MEAN_ELEMENT_THEORY":"SGP4","INCLINATION":"53.0546","PERIOD":"95.592","ARG_OF_PERICENTER":"90.9750","MEAN_MOTION":"15.06400597","RA_OF_ASC_NODE":"111.0609","TLE_LINE2":"2 45773  53.0546 111.0609 0001782  90.9750 269.1443 15.06400597 77894","OBJECT_TYPE":"PAYLOAD","EPOCH":"2021-11-05T21:21:52.670880","ECCENTRICITY":"0.00017820","MEAN_MOTION_DDOT":"0.0000000000000","REF_FRAME":"TEME","EPHEMERIS_TYPE":"0","MEAN_MOTION_DOT":"-0.00000093","ELEMENT_SET_NO":"999","CLASSIFICATION_TYPE":"U","BSTAR":"0.00001268300000","MEAN_ANOMALY":"269.1443","RCS_SIZE":"LARGE","FILE":"3204412","SITE":"AFETR","COUNTRY_CODE":"US","OBJECT_ID":"2020-038AV","TIME_SYSTEM":"UTC","PERIAPSIS":"545.978","GP_ID":"189044921","LAUNCH_DATE":"2020-06-13","CENTER_NAME":"EARTH","OBJECT_NAME":"STARLINK-1482","DECAY_DATE":null,"SEMIMAJOR_AXIS":"6925.347","TLE_LINE1":"1 45773U 20038AV  21309.89019295 -.00000093  00000-0  12683-4 0  9994","APOAPSIS":"548.446"}];
